LEMUR-2-AMANDA-SVANTE   
1 48269U 21034B   26068.77637527  .00030872  00000+0  11134-2 0  9996
2 48269  97.5829 144.8625 0002703 205.4721 154.6385 15.28469003265849
STARLINK-31674          
1 59517U 24073G   26068.08147949 -.00002261  00000+0 -72693-4 0  9990
2 59517  43.0001 321.3705 0000609 273.7961  86.2821 15.27569136106085
